[{"OBJECT_NAME":"QB50P2","OBJECT_ID":"2014-033Y","EPOCH":"2026-03-09T22:15:59.880096","MEAN_MOTION":15.13675048,"ECCENTRICITY":0.00085666,"INCLINATION":98.0738,"RA_OF_ASC_NODE":59.7545,"ARG_OF_PERICENTER":142.3387,"MEAN_ANOMALY":217.8444,"EPHEMERIS_TYPE":0,"CLASSIFICATION_TYPE":"U","NORAD_CAT_ID":40032,"ELEMENT_SET_NO":999,"REV_AT_EPOCH":63764,"BSTAR":0.00059145643,"MEAN_MOTION_DOT":0.00010584,"MEAN_MOTION_DDOT":0},{"OBJECT_NAME":"STARLINK-5090","OBJECT_ID":"2023-046AX","EPOCH":"2026-03-09T22:00:01.999584","MEAN_MOTION":15.10022379,"ECCENTRICITY":0.00018333,"INCLINATION":42.9997,"RA_OF_ASC_NODE":144.2702,"ARG_OF_PERICENTER":258.3059,"MEAN_ANOMALY":26.3925,"EPHEMERIS_TYPE":0,"CLASSIFICATION_TYPE":"U","NORAD_CAT_ID":56137,"ELEMENT_SET_NO":999,"REV_AT_EPOCH":572,"BSTAR":0.00019724228,"MEAN_MOTION_DOT":3.045e-5,"MEAN_MOTION_DDOT":0}]
